- !!map
  id:                 22
  name:               Potatus
  radius:             120000
  mass:               634744137962033500000
  stdGravParam:       42364728000
  soi:                1639110.5672467968
  orbit:
    semiMajorAxis:    49774211.5220191
    eccentricity:     0.34425508892282
    inclination:      336.880259513855
    argOfPeriapsis:   0
    ascNodeLongitude: 55
  meanAnomaly0:       1.10000002384186
  epoch:              1343.91003417969
  orbiting:           19
  color:              0xbfccd1

- !!map
  id:                 23
  name:               Fonso
  radius:             260000
  atmosphereAlt:      8500.0
  mass:               5.959542184199093e+21
  stdGravParam:       397757724000
  soi:                8310584.035927089
  orbit:
    semiMajorAxis:    103034342.603683
    eccentricity:     0.04
    inclination:      5
    argOfPeriapsis:   0
    ascNodeLongitude: 55
  meanAnomaly0:       1.1
  epoch:              1343.91
  orbiting:           19
  color:              0xa87c7a

- !!map
  id:                 24
  name:               Shayle
  radius:             100000
  mass:               191010967442278600000
  stdGravParam:       12748645000
  soi:                6278664.680185804
  orbit:
    semiMajorAxis:    308233321.569649
    eccentricity:     0.0666710248134526
    inclination:      191.465005874634
    argOfPeriapsis:   252.293107509613
    ascNodeLongitude: 145.0872194767
  meanAnomaly0:       1.1
  epoch:              1343.91
  orbiting:           19
  color:              0xb2b2b2

- !!map
  id:                 25
  name:               Corolet
  radius:             6000
  mass:               528953448301694600
  stdGravParam:       35303940
  soi:                18654795.684494946
  orbit:
    semiMajorAxis:    301500000256
    eccentricity:     0.97
    inclination:      16
    argOfPeriapsis:   0
    ascNodeLongitude: 80
  meanAnomaly0:       1.1
  epoch:              200000
  orbiting:           0
  color:              0x264789

- !!map
  id:                 26
  name:               Keelon
  radius:             800000
  atmosphereAlt:      115000.0
  mass:               2.538976551848134e+23
  stdGravParam:       16945891199999.998
  soi:                5721692629.2064
  orbit:
    semiMajorAxis:    493770169185.85
    eccentricity:     0.140720235114866
    inclination:      2
    argOfPeriapsis:   0
    ascNodeLongitude: 0
  meanAnomaly0:       1.1
  epoch:              1343.91
  orbiting:           0
  color:              0xa57a33

- !!map
  id:                 27
  name:               Manai
  radius:             150000
  atmosphereAlt:      45000
  mass:               1.3223836207542365e+21
  stdGravParam:       88259850000
  soi:                683703.0787028216
  orbit:
    semiMajorAxis:    5600000
    eccentricity:     0.1
    inclination:      1
    argOfPeriapsis:   0
    ascNodeLongitude: 89
  meanAnomaly0:       0
  epoch:              0
  orbiting:           26
  color:              0xbf667f

- !!map
  id:                 28
  name:               Revus
  radius:             200000
  mass:               2.938630268342748e+21
  stdGravParam:       196133000000
  soi:                10254926.133643012
  orbit:
    semiMajorAxis:    61029250.0866297
    eccentricity:     0.18
    inclination:      168
    argOfPeriapsis:   0
    ascNodeLongitude: 89
  meanAnomaly0:       0
  epoch:              0
  orbiting:           26
  color:              0x3366b2
